GLOBALSTAR M075         
1 37192U 10054E   24204.92091331 -.00000076  00000+0  15429-3 0  9999
2 37192  51.9948 104.0806 0000556  52.8398  27.7737 12.62261933634427
GLOBALSTAR M073         
1 37193U 10054F   24204.93795395 -.00000104  00000+0 -31865-5 0  9999
2 37193  52.0081  17.5977 0000848  78.3088  78.7270 12.62267173636251
GLOBALSTAR M083         
1 37739U 11033A   24204.87067807 -.00000070  00000+0  18579-3 0  9992
2 37739  51.9880 326.9830 0000616 125.0158  27.8144 12.62262618605269
GLOBALSTAR M088         
1 37740U 11033B   24204.52780601 -.00000078  00000+0  14259-3 0  9999
2 37740  51.9711 233.7960 0000255 191.3682 322.8317 12.62265545600762
GLOBALSTAR M091         
1 37741U 11033C   24204.90450367 -.00000113  00000+0 -50133-4 0  9998
2 37741  51.9969 195.6153 0000246 232.5152 132.7397 12.62264889601608
GLOBALSTAR M085         
1 37742U 11033D   24204.91303772 -.00000095  00000+0  46372-4 0  9995
2 37742  51.9857 146.9167 0000171  11.3257  94.1691 12.62263580602117
GLOBALSTAR M081         
1 37743U 11033E   24204.92176505 -.00000106  00000+0 -12476-4 0  9991
2 37743  51.9944 149.4747 0000377 343.1537  41.3737 12.62267061602261
GLOBALSTAR M089         
1 37744U 11033F   24204.80743598 -.00000078  00000+0  14227-3 0  9993
2 37744  51.9929 104.1155 0000909  41.3385   1.9234 12.62266122603098
